{"type": "FeatureCollection", "features": [ {"type": "Feature", "properties": {"norad_id": 39620, "name": "COSMOS 2492 (754)", "group": "gnss", "lat": 53.42603593799388, "lon": -1.3911069459005694, "alt_km": 19136.808936153586, "timestamp": "2025-12-05T14:45:15.543477+00:00", "meta": {"OBJECT_NAME": "COSMOS 2492 (754)", "OBJECT_ID": "2014-012A", "EPOCH": "2025-12-02T17:14:30.403680", "MEAN_MOTION": 2.13103072, "ECCENTRICITY": 0.00141646, "INCLINATION": 65.4134, "RA_OF_ASC_NODE": 320.6107, "ARG_OF_PERICENTER": 311.0276, "MEAN_ANOMALY": 48.8557, "EPHEMERIS_TYPE": 0, "CLASSIFICATION_TYPE": "U", "NORAD_CAT_ID": 39620, "ELEMENT_SET_NO": 999, "REV_AT_EPOCH": 9105, "BSTAR": 0, "MEAN_MOTION_DOT": -3.6e-07, "MEAN_MOTION_DDOT": 0}, "tle": {"line1": "1 39620U 14012A   25336.71840745 -.00000036  00000+0  00000+0 0  9991", "line2": "2 39620  65.4134 320.6107 0014164 311.0276  48.8557  2.13103072 91051"}}, "geometry": {"type": "Point", "coordinates": [-1.3911069459005694, 53.42603593799388]}}, {"type": "Feature", "properties": {"norad_id": 39635, "name": "IRNSS-1B", "group": "gnss", "lat": 27.488856035786668, "lon": -6.958999341858528, "alt_km": 35764.22941029554, "timestamp": "2025-12-05T14:45:15.543488+00:00", "meta": {"OBJECT_NAME": "IRNSS-1B", "OBJECT_ID": "2014-017A", "EPOCH": "2025-12-03T19:41:17.178144", "MEAN_MOTION": 1.0027569, "ECCENTRICITY": 0.00176274, "INCLINATION": 28.8399, "RA_OF_ASC_NODE": 243.7446, "ARG_OF_PERICENTER": 183.6842, "MEAN_ANOMALY": 355.8349, "EPHEMERIS_TYPE": 0, "CLASSIFICATION_TYPE": "U", "NORAD_CAT_ID": 39635, "ELEMENT_SET_NO": 999, "REV_AT_EPOCH": 4283, "BSTAR": 0, "MEAN_MOTION_DOT": 1.25e-06, "MEAN_MOTION_DDOT": 0}, "tle": {"line1": "1 39635U 14017A   25337.82033771  .00000125  00000+0  00000+0 0  9996", "line2": "2 39635  28.8399 243.7446 0017627 183.6842 355.8349  1.00275690 42836"}}, "geometry": {"type": "Point", "coordinates": [-6.958999341858528, 27.488856035786668]}}, {"type": "Feature", "properties": {"norad_id": 39727, "name": "LUCH 5V (SDCM/PRN 141)", "group": "gnss", "lat": -3.0157974192001835, "lon": 30.88998737297458, "alt_km": 35796.321458373524, "timestamp": "2025-12-05T14:45:15.543502+00:00", "meta": {"OBJECT_NAME": "LUCH 5V (SDCM/PRN 141)", "OBJECT_ID": "2014-023A", "EPOCH": "2025-12-03T19:58:11.808768", "MEAN_MOTION": 1.00271692, "ECCENTRICITY": 0.00045321, "INCLINATION": 4.6454, "RA_OF_ASC_NODE": 71.6144, "ARG_OF_PERICENTER": 199.1759, "MEAN_ANOMALY": 196.4512, "EPHEMERIS_TYPE": 0, "CLASSIFICATION_TYPE": "U", "NORAD_CAT_ID": 39727, "ELEMENT_SET_NO": 999, "REV_AT_EPOCH": 4240, "BSTAR": 0, "MEAN_MOTION_DOT": -2.55e-06, "MEAN_MOTION_DDOT": 0}, "tle": {"line1": "1 39727U 14023A   25337.83208112 -.00000255  00000+0  00000+0 0  9994", "line2": "2 39727   4.6454  71.6144 0004532 199.1759 196.4512  1.00271692 42407"}}, "geometry": {"type": "Point", "coordinates": [30.88998737297458, -3.0157974192001835]}}, {"type": "Feature", "properties": {"norad_id": 39741, "name": "GPS BIIF-6  (PRN 06)", "group": "gnss", "lat": 53.00780400928334, "lon": 40.25840533045881, "alt_km": 20219.665861382764, "timestamp": "2025-12-05T14:45:15.543514+00:00", "meta": {"OBJECT_NAME": "GPS BIIF-6  (PRN 06)", "OBJECT_ID": "2014-026A", "EPOCH": "2025-12-04T12:23:41.363808", "MEAN_MOTION": 2.0056177, "ECCENTRICITY": 0.003895, "INCLINATION": 56.5867, "RA_OF_ASC_NODE": 339.0964, "ARG_OF_PERICENTER": 318.2284, "MEAN_ANOMALY": 41.4951, "EPHEMERIS_TYPE": 0, "CLASSIFICATION_TYPE": "U", "NORAD_CAT_ID": 39741, "ELEMENT_SET_NO": 999, "REV_AT_EPOCH": 8463, "BSTAR": 0, "MEAN_MOTION_DOT": -7e-07, "MEAN_MOTION_DDOT": 0}, "tle": {"line1": "1 39741U 14026A   25338.51645097 -.00000070  00000+0  00000+0 0  9991", "line2": "2 39741  56.5867 339.0964 0038950 318.2284  41.4951  2.00561770 84633"}}, "geometry": {"type": "Point", "coordinates": [40.25840533045881, 53.00780400928334]}}, {"type": "Feature", "properties": {"norad_id": 40001, "name": "COSMOS 2500 (755)", "group": "gnss", "lat": -58.72257361294691, "lon": -88.85003011175395, "alt_km": 19128.91786115738, "timestamp": "2025-12-05T14:45:15.543525+00:00", "meta": {"OBJECT_NAME": "COSMOS 2500 (755)", "OBJECT_ID": "2014-032A", "EPOCH": "2025-12-04T07:09:49.504896", "MEAN_MOTION": 2.13106037, "ECCENTRICITY": 0.0008267, "INCLINATION": 65.3482, "RA_OF_ASC_NODE": 320.3199, "ARG_OF_PERICENTER": 219.122, "MEAN_ANOMALY": 140.8171, "EPHEMERIS_TYPE": 0, "CLASSIFICATION_TYPE": "U", "NORAD_CAT_ID": 40001, "ELEMENT_SET_NO": 999, "REV_AT_EPOCH": 8930, "BSTAR": 0, "MEAN_MOTION_DOT": -4.5e-07, "MEAN_MOTION_DDOT": 0}, "tle": {"line1": "1 40001U 14032A   25338.29848964 -.00000045  00000+0  00000+0 0  9994", "line2": "2 40001  65.3482 320.3199 0008267 219.1220 140.8171  2.13106037 89307"}}, "geometry": {"type": "Point", "coordinates": [-88.85003011175395, -58.72257361294691]}}, {"type": "Feature", "properties": {"norad_id": 40105, "name": "GPS BIIF-7  (PRN 09)", "group": "gnss", "lat": 7.782671325038764, "lon": 101.6158529373657, "alt_km": 20210.719170291835, "timestamp": "2025-12-05T14:45:15.543538+00:00", "meta": {"OBJECT_NAME": "GPS BIIF-7  (PRN 09)", "OBJECT_ID": "2014-045A", "EPOCH": "2025-12-02T02:40:49.418112", "MEAN_MOTION": 2.00571797, "ECCENTRICITY": 0.00329353, "INCLINATION": 55.2223, "RA_OF_ASC_NODE": 96.323, "ARG_OF_PERICENTER": 119.6015, "MEAN_ANOMALY": 240.7039, "EPHEMERIS_TYPE": 0, "CLASSIFICATION_TYPE": "U", "NORAD_CAT_ID": 40105, "ELEMENT_SET_NO": 999, "REV_AT_EPOCH": 8212, "BSTAR": 0, "MEAN_MOTION_DOT": 7e-08, "MEAN_MOTION_DDOT": 0}, "tle": {"line1": "1 40105U 14045A   25336.11168308  .00000007  00000+0  00000+0 0  9996", "line2": "2 40105  55.2223  96.3230 0032935 119.6015 240.7039  2.00571797 82125"}}, "geometry": {"type": "Point", "coordinates": [101.6158529373657, 7.782671325038764]}}, {"type": "Feature", "properties": {"norad_id": 40128, "name": "GSAT0201 (GALILEO 5)", "group": "gnss", "lat": 19.95900974370153, "lon": 82.99970381878178, "alt_km": 17161.243311850685, "timestamp": "2025-12-05T14:45:15.543550+00:00", "meta": {"OBJECT_NAME": "GSAT0201 (GALILEO 5)", "OBJECT_ID": "2014-050A", "EPOCH": "2025-11-28T09:00:06.762528", "MEAN_MOTION": 1.85519533, "ECCENTRICITY": 0.16464881, "INCLINATION": 49.0938, "RA_OF_ASC_NODE": 281.6492, "ARG_OF_PERICENTER": 171.7362, "MEAN_ANOMALY": 191.3851, "EPHEMERIS_TYPE": 0, "CLASSIFICATION_TYPE": "U", "NORAD_CAT_ID": 40128, "ELEMENT_SET_NO": 999, "REV_AT_EPOCH": 7459, "BSTAR": 0, "MEAN_MOTION_DOT": -4.8e-07, "MEAN_MOTION_DDOT": 0}, "tle": {"line1": "1 40128U 14050A   25332.37507827 -.00000048  00000+0  00000+0 0  9990", "line2": "2 40128  49.0938 281.6492 1646488 171.7362 191.3851  1.85519533 74599"}}, "geometry": {"type": "Point", "coordinates": [82.99970381878178, 19.95900974370153]}}, {"type": "Feature", "properties": {"norad_id": 40129, "name": "GSAT0202 (GALILEO 6)", "group": "gnss", "lat": -8.583211071404147, "lon": -87.09212821158259, "alt_km": 26199.279881857074, "timestamp": "2025-12-05T14:45:15.543561+00:00", "meta": {"OBJECT_NAME": "GSAT0202 (GALILEO 6)", "OBJECT_ID": "2014-050B", "EPOCH": "2025-12-02T22:38:17.581056", "MEAN_MOTION": 1.8552031, "ECCENTRICITY": 0.1647571, "INCLINATION": 49.1042, "RA_OF_ASC_NODE": 280.5465, "ARG_OF_PERICENTER": 172.6616, "MEAN_ANOMALY": 190.1192, "EPHEMERIS_TYPE": 0, "CLASSIFICATION_TYPE": "U", "NORAD_CAT_ID": 40129, "ELEMENT_SET_NO": 999, "REV_AT_EPOCH": 7684, "BSTAR": 0, "MEAN_MOTION_DOT": -5.9e-07, "MEAN_MOTION_DDOT": 0}, "tle": {"line1": "1 40129U 14050B   25336.94325904 -.00000059  00000+0  00000+0 0  9994", "line2": "2 40129  49.1042 280.5465 1647571 172.6616 190.1192  1.85520310 76841"}}, "geometry": {"type": "Point", "coordinates": [-87.09212821158259, -8.583211071404147]}}, {"type": "Feature", "properties": {"norad_id": 40269, "name": "IRNSS-1C", "group": "gnss", "lat": -5.772733358456563, "lon": 18.80988204129348, "alt_km": 35770.080288048855, "timestamp": "2025-12-05T14:45:15.543573+00:00", "meta": {"OBJECT_NAME": "IRNSS-1C", "OBJECT_ID": "2014-061A", "EPOCH": "2025-12-03T18:58:13.488096", "MEAN_MOTION": 1.0026916, "ECCENTRICITY": 0.00178578, "INCLINATION": 6.0182, "RA_OF_ASC_NODE": 92.8005, "ARG_OF_PERICENTER": 2.7549, "MEAN_ANOMALY": 344.8365, "EPHEMERIS_TYPE": 0, "CLASSIFICATION_TYPE": "U", "NORAD_CAT_ID": 40269, "ELEMENT_SET_NO": 999, "REV_AT_EPOCH": 4072, "BSTAR": 0, "MEAN_MOTION_DOT": -1.46e-06, "MEAN_MOTION_DDOT": 0}, "tle": {"line1": "1 40269U 14061A   25337.79043389 -.00000146  00000+0  00000+0 0  9996", "line2": "2 40269   6.0182  92.8005 0017857   2.7549 344.8365  1.00269160 40720"}}, "geometry": {"type": "Point", "coordinates": [18.80988204129348, -5.772733358456563]}}, {"type": "Feature", "properties": {"norad_id": 40294, "name": "GPS BIIF-8  (PRN 03)", "group": "gnss", "lat": 55.80613623565939, "lon": 144.5375324670519, "alt_km": 20034.910812298956, "timestamp": "2025-12-05T14:45:15.543587+00:00", "meta": {"OBJECT_NAME": "GPS BIIF-8  (PRN 03)", "OBJECT_ID": "2014-068A", "EPOCH": "2025-12-03T11:38:05.638272", "MEAN_MOTION": 2.00564094, "ECCENTRICITY": 0.00608191, "INCLINATION": 56.851, "RA_OF_ASC_NODE": 38.5042, "ARG_OF_PERICENTER": 69.3788, "MEAN_ANOMALY": 291.3251, "EPHEMERIS_TYPE": 0, "CLASSIFICATION_TYPE": "U", "NORAD_CAT_ID": 40294, "ELEMENT_SET_NO": 999, "REV_AT_EPOCH": 8128, "BSTAR": 0, "MEAN_MOTION_DOT": -6.5e-07, "MEAN_MOTION_DDOT": 0}, "tle": {"line1": "1 40294U 14068A   25337.48478748 -.00000065  00000+0  00000+0 0  9998", "line2": "2 40294  56.8510  38.5042 0060819  69.3788 291.3251  2.00564094 81285"}}, "geometry": {"type": "Point", "coordinates": [144.5375324670519, 55.80613623565939]}}]}